{
  "norad_id": 50173,
  "name": "STARLINK-3289",
  "history": [
    {
      "epoch": "2026-03-28T13:43:12.908352Z",
      "apogee_km": 534.2812882287226,
      "perigee_km": 532.1747041778799,
      "latitude_deg": -1.4439304001609791e-05,
      "longitude_deg": 122.25009792414286,
      "height_km": 533.146267104023,
      "semi_major_axis_km": 6911.364996203301,
      "eccentricity": 0.0001524,
      "inclination_deg": 53.2148,
      "raan_deg": 154.0441,
      "arg_perigee_deg": 21.636,
      "mean_anomaly_deg": 338.4697,
      "mean_motion_rev_day": 15.10974094
    },
    {
      "epoch": "2026-03-28T21:39:28.026144Z",
      "apogee_km": 534.2336865591897,
      "perigee_km": 532.156140186029,
      "latitude_deg": 2.4725711904203652e-05,
      "longitude_deg": 1.370753232482916,
      "height_km": 533.135002313156,
      "semi_major_axis_km": 6911.331913372609,
      "eccentricity": 0.0001503,
      "inclination_deg": 53.2146,
      "raan_deg": 152.5537,
      "arg_perigee_deg": 22.8559,
      "mean_anomaly_deg": 337.2501,
      "mean_motion_rev_day": 15.10984943
    },
    {
      "epoch": "2026-03-30T03:49:10.716384Z",
      "apogee_km": 534.1636525419835,
      "perigee_km": 531.852565617507,
      "latitude_deg": 4.366017114196261e-06,
      "longitude_deg": -97.9567407619549,
      "height_km": 532.8476298628628,
      "semi_major_axis_km": 6911.145109079745,
      "eccentricity": 0.0001672,
      "inclination_deg": 53.215,
      "raan_deg": 146.8928,
      "arg_perigee_deg": 23.7431,
      "mean_anomaly_deg": 336.3639,
      "mean_motion_rev_day": 15.11046205
    },
    {
      "epoch": "2026-03-30T13:20:38.906304Z",
      "apogee_km": 534.1921780483399,
      "perigee_km": 531.6581679919791,
      "latitude_deg": -8.346758479869572e-06,
      "longitude_deg": 116.99773504284484,
      "height_km": 532.6645270042443,
      "semi_major_axis_km": 6911.062173020159,
      "eccentricity": 0.00018333,
      "inclination_deg": 53.2149,
      "raan_deg": 145.1059,
      "arg_perigee_deg": 23.9611,
      "mean_anomaly_deg": 336.1467,
      "mean_motion_rev_day": 15.11073405
    },
    {
      "epoch": "2026-03-31T13:09:17.224128Z",
      "apogee_km": 534.084939881528,
      "perigee_km": 531.4297742695398,
      "latitude_deg": 7.115852485099877e-05,
      "longitude_deg": 114.39056944907473,
      "height_km": 532.4757323635237,
      "semi_major_axis_km": 6910.894357075534,
      "eccentricity": 0.0001921,
      "inclination_deg": 53.2148,
      "raan_deg": 140.6362,
      "arg_perigee_deg": 27.4034,
      "mean_anomaly_deg": 332.7061,
      "mean_motion_rev_day": 15.11128445
    },
    {
      "epoch": "2026-04-01T19:18:49.403808Z",
      "apogee_km": 533.932306768942,
      "perigee_km": 531.1804686619544,
      "latitude_deg": 6.202646558932273e-05,
      "longitude_deg": 15.105798680051013,
      "height_km": 532.2628101828634,
      "semi_major_axis_km": 6910.693387715448,
      "eccentricity": 0.0001991,
      "inclination_deg": 53.2147,
      "raan_deg": 134.9741,
      "arg_perigee_deg": 30.0957,
      "mean_anomaly_deg": 330.0151,
      "mean_motion_rev_day": 15.11194363
    },
    {
      "epoch": "2026-04-02T19:07:21.208800Z",
      "apogee_km": 533.8412172063154,
      "perigee_km": 531.0051233124414,
      "latitude_deg": 1.2619685137095065e-05,
      "longitude_deg": 12.525647841256635,
      "height_km": 532.1005085570154,
      "semi_major_axis_km": 6910.5601702593785,
      "eccentricity": 0.0002052,
      "inclination_deg": 53.2145,
      "raan_deg": 130.5043,
      "arg_perigee_deg": 30.6888,
      "mean_anomaly_deg": 329.4225,
      "mean_motion_rev_day": 15.11238061
    },
    {
      "epoch": "2026-04-02T19:07:21.209664Z",
      "apogee_km": 533.8411481007142,
      "perigee_km": 531.0051924180434,
      "latitude_deg": 1.3086297860272383e-05,
      "longitude_deg": 12.525644578372864,
      "height_km": 532.1005679841302,
      "semi_major_axis_km": 6910.5601702593785,
      "eccentricity": 0.00020519,
      "inclination_deg": 53.2145,
      "raan_deg": 130.5043,
      "arg_perigee_deg": 30.6888,
      "mean_anomaly_deg": 329.4225,
      "mean_motion_rev_day": 15.11238061
    },
    {
      "epoch": "2026-04-03T12:34:54.869088Z",
      "apogee_km": 533.7625348970114,
      "perigee_km": 530.8630483734369,
      "latitude_deg": 3.449397721319827e-05,
      "longitude_deg": 106.64028298063288,
      "height_km": 531.9850658446509,
      "semi_major_axis_km": 6910.449791635224,
      "eccentricity": 0.00020979,
      "inclination_deg": 53.214,
      "raan_deg": 127.2262,
      "arg_perigee_deg": 32.3769,
      "mean_anomaly_deg": 327.7353,
      "mean_motion_rev_day": 15.11274269
    },
    {
      "epoch": "2026-04-04T10:48:07.512480Z",
      "apogee_km": 533.6012292805717,
      "perigee_km": 530.6418419601068,
      "latitude_deg": 3.939451620955164e-05,
      "longitude_deg": 128.25265504728574,
      "height_km": 531.8013676433483,
      "semi_major_axis_km": 6910.258535620339,
      "eccentricity": 0.00021413,
      "inclination_deg": 53.2139,
      "raan_deg": 123.0538,
      "arg_perigee_deg": 34.688,
      "mean_anomaly_deg": 325.4253,
      "mean_motion_rev_day": 15.11337011
    },
    {
      "epoch": "2026-04-05T10:36:30.879648Z",
      "apogee_km": 533.4489168269702,
      "perigee_km": 530.4478667413177,
      "latitude_deg": 3.175274939487331e-05,
      "longitude_deg": 125.70648701113383,
      "height_km": 531.6694822172565,
      "semi_major_axis_km": 6910.085391784143,
      "eccentricity": 0.00021715,
      "inclination_deg": 53.2137,
      "raan_deg": 118.5827,
      "arg_perigee_deg": 38.4425,
      "mean_anomaly_deg": 321.6723,
      "mean_motion_rev_day": 15.11393815
    },
    {
      "epoch": "2026-04-05T18:32:37.919904Z",
      "apogee_km": 533.4001862875266,
      "perigee_km": 530.3791226341964,
      "latitude_deg": 2.3221883499361812e-05,
      "longitude_deg": 4.861154937636004,
      "height_km": 531.6177694354126,
      "semi_major_axis_km": 6910.026654460861,
      "eccentricity": 0.0002186,
      "inclination_deg": 53.2138,
      "raan_deg": 117.0926,
      "arg_perigee_deg": 39.3422,
      "mean_anomaly_deg": 320.773,
      "mean_motion_rev_day": 15.11413086
    },
    {
      "epoch": "2026-04-06T05:39:11.202048Z",
      "apogee_km": 533.3598603864366,
      "perigee_km": 530.2560513111684,
      "latitude_deg": -7.34242708135555e-06,
      "longitude_deg": -164.31988486408073,
      "height_km": 531.5294375384381,
      "semi_major_axis_km": 6909.944955848802,
      "eccentricity": 0.00022459,
      "inclination_deg": 53.2138,
      "raan_deg": 115.0065,
      "arg_perigee_deg": 40.8025,
      "mean_anomaly_deg": 319.3136,
      "mean_motion_rev_day": 15.11439891
    },
    {
      "epoch": "2026-04-07T10:13:08.021856Z",
      "apogee_km": 533.2527216245462,
      "perigee_km": 529.9774991242275,
      "latitude_deg": 1.3505560526256246e-05,
      "longitude_deg": 120.65522326027678,
      "height_km": 531.3344730429034,
      "semi_major_axis_km": 6909.752110374387,
      "eccentricity": 0.000237,
      "inclination_deg": 53.2142,
      "raan_deg": 109.6415,
      "arg_perigee_deg": 44.067,
      "mean_anomaly_deg": 316.0512,
      "mean_motion_rev_day": 15.11503166
    },
    {
      "epoch": "2026-04-08T10:01:22.357632Z",
      "apogee_km": 533.1687516694201,
      "perigee_km": 529.7666005190049,
      "latitude_deg": -1.2020535473494166e-05,
      "longitude_deg": 118.14657409594932,
      "height_km": 531.2024540774297,
      "semi_major_axis_km": 6909.604676094213,
      "eccentricity": 0.00024619,
      "inclination_deg": 53.2148,
      "raan_deg": 105.1702,
      "arg_perigee_deg": 46.9543,
      "mean_anomaly_deg": 313.1656,
      "mean_motion_rev_day": 15.11551544
    },
    {
      "epoch": "2026-04-09T06:39:08.381376Z",
      "apogee_km": 533.0504500244951,
      "perigee_km": 529.6150616618897,
      "latitude_deg": 1.885594957986126e-05,
      "longitude_deg": 163.9821074010725,
      "height_km": 531.1069451180442,
      "semi_major_axis_km": 6909.469755843193,
      "eccentricity": 0.0002486,
      "inclination_deg": 53.215,
      "raan_deg": 101.2947,
      "arg_perigee_deg": 49.2332,
      "mean_anomaly_deg": 310.8877,
      "mean_motion_rev_day": 15.11595818
    },
    {
      "epoch": "2026-04-10T09:37:42.486816Z",
      "apogee_km": 532.9412989419725,
      "perigee_km": 529.414784544666,
      "latitude_deg": -7.1119793641855035e-06,
      "longitude_deg": 113.16490831259235,
      "height_km": 530.9406688055786,
      "semi_major_axis_km": 6909.315041743319,
      "eccentricity": 0.0002552,
      "inclination_deg": 53.2155,
      "raan_deg": 96.2275,
      "arg_perigee_deg": 50.0103,
      "mean_anomaly_deg": 310.1114,
      "mean_motion_rev_day": 15.1164659
    },
    {
      "epoch": "2026-04-11T15:46:39.213120Z",
      "apogee_km": 532.8845328445504,
      "perigee_km": 529.2875913184307,
      "latitude_deg": 1.2599061623303109e-05,
      "longitude_deg": 14.02568176166594,
      "height_km": 530.9451862069906,
      "semi_major_axis_km": 6909.22306208149,
      "eccentricity": 0.0002603,
      "inclination_deg": 53.2154,
      "raan_deg": 90.5628,
      "arg_perigee_deg": 54.8115,
      "mean_anomaly_deg": 305.3122,
      "mean_motion_rev_day": 15.11676776
    },
    {
      "epoch": "2026-04-13T05:51:33.686496Z",
      "apogee_km": 532.7069566646469,
      "perigee_km": 529.1440913022789,
      "latitude_deg": -6.971726722144295e-05,
      "longitude_deg": 154.07918337544834,
      "height_km": 530.8691692439838,
      "semi_major_axis_km": 6909.062523983463,
      "eccentricity": 0.00025784,
      "inclination_deg": 53.2146,
      "raan_deg": 83.4073,
      "arg_perigee_deg": 57.7062,
      "mean_anomaly_deg": 302.418,
      "mean_motion_rev_day": 15.11729464
    }
  ]
}